GEOSCAN 3 (RS92S3)      
1 64893U 25155T   26186.17694673  .00028021  00000+0  79766-3 0  9994
2 64893  97.4549 156.2711 0008470 113.3463 246.8673 15.36048394 83610
INNOSAT 3 (RS92S0)      
1 64894U 25155U   26186.25932942  .00060650  00000+0  12686-2 0  9999
2 64894  97.4495 158.2050 0008291 112.6689 247.5437 15.45232697 83754
KNACKSAT-2              
1 67683U 98067XZ  26186.08645847  .00070784  00000+0  80434-3 0  9992
2 67683  51.6258 204.3384 0008324 292.4165  67.5946 15.61628569 23077
