OBJECT_NAME,OBJECT_ID,EPOCH,MEAN_MOTION,ECCENTRICITY,INCLINATION,RA_OF_ASC_NODE,ARG_OF_PERICENTER,MEAN_ANOMALY,EPHEMERIS_TYPE,CLASSIFICATION_TYPE,NORAD_CAT_ID,ELEMENT_SET_NO,REV_AT_EPOCH,BSTAR,MEAN_MOTION_DOT,MEAN_MOTION_DDOT
GEOSCAN 3 (RS92S3),2025-155T,2026-07-05T04:14:48.197472,15.36048394,.00084705,97.4549,156.2711,113.3463,246.8673,0,U,64893,999,8361,.79765741E-3,.28021E-3,0
INNOSAT 3 (RS92S0),2025-155U,2026-07-05T06:13:26.061888,15.45232697,.00082913,97.4495,158.2050,112.6689,247.5437,0,U,64894,999,8375,.12685622E-2,.6065E-3,0
KNACKSAT-2,1998-067XZ,2026-07-05T02:04:30.011808,15.61628569,.00083242,51.6258,204.3384,292.4165,67.5946,0,U,67683,999,2307,.80434196E-3,.70784E-3,0
